imageUrl	title	totalScore	reviewsCount	state	city	phone	categoryName	description	placeId	location/lat	location/lng
https://lh5.googleusercontent.com/p/AF1QipOD131f_hOddN8rDIjEisYX2uhwO3ubiolG6ekQ=w408-h306-k-no	Tanah Lot	4.6	94946	Bali	Kabupaten Tabanan	+62 361 880361	Tujuan Wisata	Pura tradisional Bali yang terletak di sebuah pulau kecil berbatu & menawarkan pemandangan laut.	ChIJq95xT4I30i0RaU3j93Diq8o	-8.621213	115.086807
https://lh5.googleusercontent.com/p/AF1QipNdR0NIZ4lqTVxl48IGxIx3GmRTLp9E8c3a1YSw=w408-h544-k-no	Taman Budaya Garuda Wisnu Kencana	4.5	63418	Bali	Kabupaten Badung	+62 361 700808	Wisata Sejarah & Budaya	Taman luas yang menampilkan patung Hindu monumental, dengan pertunjukan tari & konser yang sering diadakan.	ChIJx97hVM9E0i0RUVpPBj5miBk	-8.8104228	115.1675986
https://lh5.googleusercontent.com/p/AF1QipO13zfeIV5XsYccl9Z44d_WW6oSvn6AoSWF112p=w408-h306-k-no	Mandala Suci Wenara Wana	4.5	49661	Bali	Kabupaten Gianyar	+62 361 971304	Cagar Alam	Kompleks kuil Hindu di hutan yang terkenal sebagai habitat kera ekor panjang.	ChIJZ5sY9kM90i0RVsPvSxZD7LY	-8.5193727	115.2606299
https://lh5.googleusercontent.com/p/AF1QipOVdUWYisBSY8irjaK22bYdAwFvZxERKq8TvsOW=w408-h306-k-no	Tegallalang Rice Terrace	4.4	46206	Bali	Kabupaten Gianyar		Wisata Alam	Kaki bukit berundak indah yang memiliki sawah di tengah pepohonan rimbun, ditambah zip line dan ayunan hutan.	ChIJ4wD5Iwsi0i0R7QRsOGmJGo0	-8.4317112	115.279303
https://lh5.googleusercontent.com/p/AF1QipPirKzD20jTYmt5M_zFQ85aP_4ZuSAFj_BIfzsX=w408-h306-k-no	Pura Ulun Danu Beratan Bedugul	4.6	43465	Bali	Kabupaten Tabanan	+62 821-4612-9292	Wisata Alam	Pura umat Hindu yang indah di danau dengan taman, perahu & kesempatan untuk berfoto dengan satwa liar.	ChIJVwisn2yJ0S0RUxvb5GhlJBg	-8.2751807	115.1668234
https://lh5.googleusercontent.com/p/AF1QipMMou3X7fcFsrCA1pxpe7Q-RZDB9nNrG4e2PB-m=w408-h306-k-no	Tegenungan Waterfall	4.3	33125	Bali	Kabupaten Gianyar		Wisata Alam	Air terjun indah di hutan rimbun yang berlokasi di atas area rendam dangkal, dengan kafe di sekitarnya.	ChIJYQy97hsW0i0RXgxBuN15rsE	-8.5753621	115.2889599
https://lh5.googleusercontent.com/p/AF1QipPHnFQ9DbxUQQF_3KA9cNRfFaRZIerGAfMokUoX=w408-h272-k-no	Pura Tirta Empul	4.6	24153	Bali	Kabupaten Gianyar		Wisata Sejarah & Budaya	Pura umat Hindu Bali dengan area mandi yang berisi air suci untuk ritual penyucian.	ChIJtTFh4PQY0i0RwewUdwFaolM	-8.4156589	115.3153284
https://lh5.googleusercontent.com/p/AF1QipOiI2LKghTSGorKu_GJoDkV5BB-bmDNAU_1Dvoc=w408-h306-k-no	Bali Zoo	4.4	19910	Bali	Kabupaten Gianyar	+62 878-8020-0200	Kebun Binatang	Kebun binatang luas berisi orang utan, gajah & singa Afrika, dengan aktivitas & pertunjukan yang interaktif.	ChIJpe5hQz4-0i0RvsbXvzbr9Ds	-8.5916783	115.2656522
https://lh5.googleusercontent.com/p/AF1QipPHTxXbkvrg1W49ZDb-IKxp4GpvAfQIlMJT5M_9=w408-h306-k-no	Tirta Gangga	4.6	19622	Bali	Kabupaten Karangasem	+62 363 21697	Tujuan Wisata	Area spiritual dan taman yang elegan ini dikelilingi mata air alami, dengan aktivitas renang dan piknik.	ChIJ0Zo39DZH0i0R0acI0bADr2U	-8.4123473	115.5872919
https://lh5.googleusercontent.com/p/AF1QipORHs3b9MuUxGc2b7Zvx1vcHkCNsBbH3A26Ian3=w426-h240-k-no	Pura Agung Besakih	4.5	15373	Bali	Kabupaten Karangasem		Wisata Sejarah & Budaya	Tempat ibadah 23 pura, termasuk beberapa pura dengan menara tinggi, dan banyak festival.	ChIJt7JIN74c0i0RSrvRjHk5_As	-8.3739976	115.4525567
https://lh5.googleusercontent.com/p/AF1QipN81xRaoDPo4oIME6yoObh130cTsGJT8xI1jRTw=w408-h271-k-no	Waterbom Bali	4.7	15009	Bali	Kabupaten Badung	+62 361 755676	Taman Rekreasi	Taman bermain air yang dilengkapi dengan wahana untuk segala umur, restoran, tempat makan, & bar kolam renang.	ChIJ34KP7qNG0i0RpX9A85PWkRI	-8.7285829	115.16929
https://lh5.googleusercontent.com/p/AF1QipP_Q4wTrQKmzNTvQa8MlV7wKy8EQC4na5DArGv3=w408-h306-k-no	Monumen Bajra Sandhi	4.6	14838	Bali	Kota Denpasar	+62 361 264517	Wisata Sejarah & Budaya	Monumen terkenal yang penuh dengan ornamen bagi orang Bali, dengan taman berumput di sekitarnya.	ChIJL626sPVA0i0RLJoATqtQcfY	-8.6717348	115.233902
https://lh5.googleusercontent.com/p/AF1QipM3AF8EcHkQmtcEX6j5CIx-oSTe3U6dwx5D991D=w426-h240-k-no	Kelingking Beach	4.7	14711	Bali	Kabupaten Klungkung		Pantai		ChIJxyzNFhZv0i0RGf_7Ct-3hO4	-8.7513325	115.4732086
https://lh5.googleusercontent.com/p/AF1QipOiqOLNoSVNBf-bvjh5_h_u7wwUOY4h2sB4EEGJ=w408-h272-k-no	Bali Swing	4.6	13938	Bali	Kabupaten Badung	+62 878-8828-8832	Tujuan Wisata	Aktivitas petualangan yang menawarkan berbagai tur, arung jeram, dan ayunan tali dengan pemandangan hutan.	ChIJ5ZiPtys90i0RUok0dF7Lh9w	-8.4906347	115.2399794
https://lh5.googleusercontent.com/p/AF1QipPE5CKejOEmF2YsNlLX37NopyX0WwkLDE_wwRNa=w408-h544-k-no	Ubud Palace	4.3	13780	Bali	Kabupaten Gianyar		Wisata Sejarah & Budaya	Pura ikonis yang menampilkan seni dan pertunjukan tari Bali di area pedesaan yang rimbun.	ChIJS7J-82o90i0RMj8cKJr2zUs	-8.5065977	115.2625884
https://lh5.googleusercontent.com/p/AF1QipM-N4HMnfAYsXOZYRE3-vMOWm6cuaMMM_aWrlML=w408-h306-k-no	Campuhan Ridge Walk	4.3	13338	Bali	Kabupaten Gianyar		Hiking Area	Lokasi menghijau indah dengan jalur pendakian yang landai & hamparan pemandangan dari puncak bukit.	ChIJ9XP0yms90i0Rn8QbqnT9E3w	-8.5035806	115.2547579
https://lh5.googleusercontent.com/p/AF1QipN5I0jH_tg0ivOZCfi5M0B-DqIt5hIJYfQsosTk=w408-h271-k-no	Bali Bird Park	4.6	12296	Bali	Kabupaten Gianyar	+62 361 299352	Kebun Binatang	Taman hewan dengan burung eksotis, pemberian makan & pertunjukan, dengan reptil, tanaman lokal & kafe.	ChIJD0zF-k4-0i0RLDhW9qwgiV8	-8.5995781	115.2519216
https://lh5.googleusercontent.com/p/AF1QipPsohHzp1rX2PYpNNTOUbfRqsWeDGK_qgTJAdH_=w408-h306-k-no	Jatiluwih	4.7	11701	Bali	Kabupaten Tabanan	+62 856-9238-1416	Wisata Alam	Area indah dengan undakan sawah menghijau yang menarik bagi pejalan kaki, pesepeda & fotografer.	ChIJ-9cMAqsn0i0RmoPm81-HDy8	-8.37031	115.131372
https://lh5.googleusercontent.com/p/AF1QipN1l2w5U3PUT64bDB054tHeeGV1RZa3LGH5lDmQ=w408-h305-k-no	Waterblow	4.4	9330	Bali	Kabupaten Badung		Pantai	Ketika ombak menghantam karang ini saat air pasang, tinggi hasil cipratannya mencapai beberapa meter.	ChIJmRTfT9ZC0i0RRB_NXwb5P2k	-8.8038567	115.2398639
https://lh5.googleusercontent.com/p/AF1QipNOtsKY84SDneXdX-BkQI7q83YHH3_uNOqwWTSo=w426-h240-k-no	Pura Penataran Agung Lempuyang	4.1	9290	Bali	Kabupaten Karangasem	+62 363 4301326	Wisata Sejarah & Budaya	Kompleks candi Hindu lereng bukit, terkenal dengan gerbang ‚Äúsurga‚Äù & pemandangan Gunung Agungnya yang memukau.	ChIJkygiUxcH0i0RY5J3_lj9oEA	-8.3918426	115.6314767
https://lh5.googleusercontent.com/p/AF1QipPvv3xNrWX0lW0QdfdK3dIuVGSkPXL1WakvcAcu=w408-h300-k-no	Taman Ujung	4.6	9018	Bali	Kabupaten Karangasem		Taman	Bekas istana air indah yang dibangun tahun 1909 ini memiliki kebun, kolam besar & foto bersejarah.	ChIJFZjn43YI0i0R8hFdqu2zmvw	-8.4630811	115.6306692
https://lh5.googleusercontent.com/p/AF1QipPwNIvxCeG6Q16P-bnGNRkTOtRJmXe4UeP5yYfS=w408-h306-k-no	Tugu Peringatan Bom Bali	4.6	7851	Bali	Kabupaten Badung		Wisata Sejarah & Budaya	Situs memorial bom & monumen yang indah dengan dinding nama, hiasan bunga & bendera di sekelilingnya.	ChIJuxVvorlG0i0RG0ye16_GAMU	-8.7172698	115.17449
https://lh5.googleusercontent.com/p/AF1QipN58VNCxijodMP2lqtP2Le2IN5k97EPyKJrpGKP=w427-h240-k-no	Sangeh Monkey Forest	4.6	7133	Bali	Kabupaten Badung	+62 851-0302-8181	Kebun Binatang	Hutan seluas 14,16 hektare dengan peninggalan candi Hindu abad ke-17 & kawanan makaka jinak warna abu-abu.	ChIJo-YhLEkj0i0RwrBdmWw4Fbc	-8.4817743	115.2067391
https://lh5.googleusercontent.com/p/AF1QipN_xnZyw3tui-rUuXrGHfnsPgQuLxlq2-sZKoKB=w408-h545-k-no	Pasar Senggol Gianyar	4.4	7008	Bali	Gianyar Regency		Tourist attraction	Night market on main strip with stalls/vendors selling Indonesian street food, clothing & souvenirs.	ChIJyywYmWAW0i0RuyDn8JJaV64	-8.5428315	115.3222552
https://lh5.googleusercontent.com/p/AF1QipPULx59qBc1ZQRoYVJk16nxgSsrzOXtcn0-TK4=w408-h294-k-no	DIAMOND BEACH NUSA PENIDA	4.7	6495	Bali	Kabupaten Klungkung	+62 857-3933-2950	Tujuan Wisata		ChIJMa53HxZ30i0RjT02sEeHrQ0	-8.7751348	115.6202282
https://lh5.googleusercontent.com/p/AF1QipN2k0n-lbmV6Y4GQNvxxC9WBaHERigz7J1nhYb_=w408-h271-k-no	Big Garden Corner	4.3	6082	Bali	Kota Denpasar	+62 812-3810-2983	Taman	Aneka koleksi patung batu yang dipajang di luar ruangan, dilengkapi taman bermain & restoran.	ChIJwwCS2XFA0i0RwGKRquRfi2s	-8.6568602	115.253657
https://lh5.googleusercontent.com/p/AF1QipOt_kRQon0QE0k7_kH-fqQBzQkFD6_b6NIwbbGv=w408-h305-k-no	Devil's Tear	4.6	5953	Bali	Kabupaten Klungkung		Pantai	Tempat pengamatan populer yang indah dengan panorama sunset yang memukau dan deburan ombak di teluk berbatu.	ChIJNXQYfLRt0i0RALc3MIMT6QA	-8.690565	115.4302884
https://lh5.googleusercontent.com/p/AF1QipO4I0x_sbU6uTNGBlmVB-80AT5USepPJBDPTSdR=w408-h306-k-no	Broken Beach	4.6	5617	Bali	Kabupaten Klungkung		Pantai		ChIJyy2nId9v0i0RpUc5EjA_2y8	-8.7327938	115.4508319
https://lh5.googleusercontent.com/p/AF1QipPDDA9_l1k5m36_PDX3qzqXUosKi3tgVPyA1Jr5=w408-h306-k-no	Bedugul Traditional Market	4.2	5164	Bali	Tabanan Regency		Tourist attraction		ChIJgaLArA2J0S0RA8wQ59CvlDw	-8.2825171	115.1622531
https://lh5.googleusercontent.com/p/AF1QipPCN2gdqFw0K4cNKaTxnfsFOW6YHiomoD38ctB2=w408-h305-k-no	Secret Garden Village	4.6	5147	Bali	Tabanan Regency	+62 368 2033363	Tourist attraction	Educational attraction focused on Indonesian-Balinese history & culture, with food & shops.	ChIJhwAqoysh0i0R70f2yLfD06s	-8.3731174	115.1930791
https://lh5.googleusercontent.com/p/AF1QipNFVjI_Qyhg6Fa0In4lX_smwBhMO5hK4awM4Fep=w408-h544-k-no	Park 23 XXI	4.4	5025	Bali	Badung Regency	+62 361 4727621	Movie theater		ChIJMYud3BxE0i0RPaXqtsiHOao	-8.7367831	115.1759419
https://lh5.googleusercontent.com/p/AF1QipNyLmqnh0rs0ONR727hyjY371i3PRJW6Z5dZueT=w426-h240-k-no	Crystal Bay Beach	4.4	4583	Bali	Kabupaten Klungkung	+62 852-3885-2836	Pantai		ChIJ32EYUAhu0i0RNeHYNdKWWcw	-8.7156148	115.4592001
https://lh5.googleusercontent.com/p/AF1QipNpdzFm0m36fjK8RD5cqu6WNrAfCp1Y6EqR_URQ=w426-h240-k-no	Kanto Lampo Waterfall	4.3	4532	Bali	Kabupaten Gianyar	+62 823-4180-5579	Wisata Alam	Jalan berhutan ke air terjun ini menuruni bebatuan ke kolam kecil yang dikelilingi dedaunan.	ChIJoQHcmv8X0i0RI6vXSuiyCOo	-8.5321802	115.3312408
https://lh5.googleusercontent.com/p/AF1QipMVwoa89KpY9K5PcNk6cgXXj0cFmkVmf490uXTI=w408-h906-k-no	Blue Lagoon Beach	4.2	4478	Bali	Kabupaten Karangasem		Pantai	Resor santai yang menawarkan vila dengan taman, spa, kolam renang, dan restoran/bar dengan pemandangan laut.	ChIJgy_UZ2gO0i0RPEApIOuadVg	-8.5297981	115.5133042
https://lh5.googleusercontent.com/p/AF1QipPDBolSTiOCItMQR0Ep7Vu3eqzfltoja0Eml4wr=w408-h306-k-no	Angel's Billabong	4.5	4406	Bali	Kabupaten Klungkung		Shopping Area		ChIJC7KcfoFv0i0ReRXz2tOmixY	-8.7335003	115.4489788
https://lh5.googleusercontent.com/p/AF1QipOUQXp0JRVCRqFm8bCFFcczSVFUmmbwle1Q0VDS=w408-h544-k-no	Banyumala Waterfall	4.8	4286	Bali	Kabupaten Buleleng	+62 858-5778-9980	Wisata Alam	Tempat populer untuk fotografer dengan air terjun terbelah yang mengalir dari bebatuan ke kolam di hutan.	ChIJdegEep2P0S0RlyNNjuDZzE4	-8.2171873	115.1016811
https://lh5.googleusercontent.com/p/AF1QipNplftU4QF_0kBF6lea4OSie5zqYauImnZQ50Y8=w408-h544-k-no	Bali Handara Gate	3.9	4199	Bali	Kabupaten Buleleng		Wisata Sejarah & Budaya	Tempat berfoto yang populer di pintu masuk lapangan golf dengan ornamen memukau bergaya mitologi Bali.	ChIJbzqpVBWJ0S0R05zES7guCTk	-8.2536835	115.1576402
https://lh5.googleusercontent.com/p/AF1QipPklpuWE8ReIVUdIeccVlY40k682Db8XsbE4R4u=w426-h240-k-no	Patung Satria Gatot Kaca	4.6	4062	Bali	Kabupaten Badung		Wisata Sejarah & Budaya	Taman dengan jalan berpaving & kebun bunga, plus air mancur & patung megah pahlawan legenda Gatotkaca.	ChIJ3Urujw9E0i0RWSEmcOlT2sg	-8.7443882	115.1788673
https://lh5.googleusercontent.com/p/AF1QipO98YMv6AaFAT4-3nKFdBwhhku3AlmiaIWHKFqk=w408-h306-k-no	Upside Down World Bali	4.2	3902	Bali	Kota Denpasar	+62 811-3880-0123	Tujuan Wisata	Tempat foto unik yang menampilkan lokasi terbalik, dengan furnitur yang ditata di langit-langit.	ChIJL1XuIURB0i0RNRhRbMMJMLI	-8.716711	115.2052612
https://lh5.googleusercontent.com/p/AF1QipPm1DOuL3LXK8Y_W0bp_qHQoZXVLFyK6aghxwPt=w408-h544-k-no	St. Francis Xavier Catholic Church	4.8	3794	Bali	Badung Regency	+62 361 751144	Tourist attraction		ChIJqWTktR9E0i0ReRZlFi1owhY	-8.735576	115.16738
https://lh5.googleusercontent.com/p/AF1QipNe6TFDZzHDjONupzKSSVu4kPGVoxvHGSb0D3nD=w408-h360-k-no	Tukad cepung waterfall	4.6	3687	Bali	Kabupaten Bangli	+62 878-6322-0041	Wisata Alam	Air terjun yang mengalir melalui celah gua, diterangi sinar matahari & dicapai melalui jalan setapak di hutan.	ChIJQ6ocSKAb0i0RP1CIrkak0ws	-8.4410173	115.3868079
	Taman Nasional Bali Barat	4.4	3065	Bali	Kabupaten Buleleng	+62 365 61060	Taman	Kawasan pesisir & perairan sekitar yang dilindungi, habitat terakhir bagi Curik Bali.	ChIJZ6RQfWVD0S0RstBUppm878Y	-8.1276114	114.4753401
https://lh5.googleusercontent.com/p/AF1QipOO6xjQqpdFrNe93NumEuZTgBxCFkfOiEnVeM4G=w426-h240-k-no	Cin√©polis Lippo Mall Kuta	4.5	3015	Bali	Badung Regency	+62 361 8978099	Movie theater	Movie theater chain, offering state-of-the-art sound & projection technology.	ChIJeRxGlR9E0i0R9G_g7IdDtdg	-8.7355031	115.1666107
https://lh5.googleusercontent.com/p/AF1QipOoIS69VoMiyIUZPAK_hMPgj4r0zTiaLB5WiaNm=w426-h240-k-no	The SILA'S Agrotourism	4.4	2932	Bali	Kabupaten Tabanan	+62 857-3710-2000	Taman Hiburan	Area rekreasi luar ruangan dengan perkemahan, paintball, berkuda, memetik buah & area permainan anak.	ChIJ-2Zw47yJ0S0RRdldgViSw_M	-8.3008386	115.160651
https://lh5.googleusercontent.com/p/AF1QipOWAWiHpHXQ04Fhqs08KC_Q-zSVCVpIUquKUcvT=w426-h240-k-no	Pantai Wates Karangasem	4.4	2553	Bali	Kabupaten Karangasem		Pantai		ChIJJ-5mbQgO0i0RcdyLWRJYoO0	-8.5505261	115.4800833
https://lh5.googleusercontent.com/p/AF1QipMrHGj9ZWUIHMJWZsaTAvMib1IKWyZBUSFgEyJ1=w408-h271-k-no	Aryaduta Bali	4.5	2341	Bali	Badung Regency	+62 361 4754188	Hotel	Refined rooms in an upscale hotel offering a hip restaurant, a sports bar & a rooftop pool.	ChIJqSXCo6FG0i0RnqR2sn9SsSQ	-8.735787	115.167247
https://lh5.googleusercontent.com/p/AF1QipP_1iCkSND4-nZwt5i9ZNqLlsYHLIgPmY06JYir=w408-h306-k-no	Raja Lima Rumah Pohon Molenteng Nusa Penida	4.6	2248	Bali	Kabupaten Klungkung	+62 822-3617-6345	Wisata Alam	Tempat di puncak bukit, berpanorama laut & pulau indah, plus rumah pohon unik untuk tempat berfoto (berbiaya).	ChIJ419QjYF30i0R_Bn1jT5cVlo	-8.7787791	115.6169247
https://lh5.googleusercontent.com/p/AF1QipMaBfN6sR0g0Uvq1WlPao-3AFf5sJ46uNYfeTaB=w426-h240-k-no	Lippo Mall Kuta	4.3	2076	Bali	Badung Regency	+62 361 8978001	Shopping mall		ChIJtaz7CmxF0i0RpdudEQcvNoA	-8.7350509	115.1670692
https://lh5.googleusercontent.com/p/AF1QipMyzvCoCDhi2fPkd6LQ-QCdXGSqwTEcYQLWCSfy=w408-h306-k-no	Balangan Beach	4.6	1963	Bali	Kabupaten Badung		Pantai	Tujuan wisata tenang di tepi pantai, terkenal sebagai tempat selancar, snorkeling & kegiatan rekreasi lainnya.	ChIJ_TLw0oxF0i0RKqoXJNwDGG0	-8.7910968	115.1243377
https://lh5.googleusercontent.com/p/AF1QipMrNFr0tOMNs9VD4MycCRXcc7GdAH0LvLH-kNEC=w408-h544-k-no	The Blanco Renaissance Museum	4.3	1891	Bali	Kabupaten Gianyar	+62 361 975502	Wisata Sejarah & Budaya	Museum seni yang memamerkan karya terkenal dari Antonio Blanco, serta taman dengan beo & burung eksotis.	ChIJPQXw4T090i0RCcZaEyy2xwM	-8.5049558	115.2541995
http://t1.gstatic.com/images?q=tbn:ANd9GcThwVzCyH2oAO9Rbu9oEk8BP76NbxMBMO79w6pG0Vkju9IM8f4U	Museum Puri Lukisan	4.3	1863	Bali	Kabupaten Gianyar	+62 361 971159	Wisata Sejarah & Budaya	Museum yang menampilkan koleksi yang cukup banyak dari karya seni Bali & dilengkapi toko & kafe.	ChIJMU6ErGo90i0RAoTslrmr-Bw	-8.5052428	115.2603706
https://lh5.googleusercontent.com/p/AF1QipMiF95Pdof772K79rOOLp-MH5Cob7P9a2bWfi4w=w427-h240-k-no	Bukit Asah Desa Bugbug	4.6	1814	Bali	Kabupaten Karangasem		Wisata Alam		ChIJaUlA7-UI0i0RMYGksT4bx8s	-8.505565	115.6105888
https://lh5.googleusercontent.com/p/AF1QipNgpRty-rvmPiPCOi2h5N7HxkPOm7EbBP0FW7DT=w408-h306-k-no	Taman Bali, Padang Galak	4.4	1808	Bali	Kota Denpasar		Wisata Sejarah & Budaya	Taman hiburan terbengkalai sejak 1990-an, dikelilingi hutan dan dengan grafiti menghiasi bangunannya.	ChIJL-o1GhJA0i0R5Abv31St2ck	-8.6575124	115.2654034
https://lh5.googleusercontent.com/p/AF1QipN1QRUBZ_F0YI9Sto0dlvi8DD-MFGObBKwCR0d_=w408-h305-k-no	Pura Goa Giri Putri	4.5	1778	Bali	Kabupaten Klungkung		Wisata Alam	Kuil yang dibangun di salah satu gua terbesar di Nusa Penida, diakses dengan tangga yang berliku.	ChIJf6i9TaF20i0R8_IaKI-kqMQ	-8.7089515	115.5861147
https://lh5.googleusercontent.com/p/AF1QipNrEktLQWatTai3Zci_snJl2vFU4jWq2lV1ZTjm=w426-h240-k-no	Tembeling Beach and Forest	4.5	1637	Bali	Kabupaten Klungkung		Pantai	Pantai kecil dan terpencil yang diakses melalui hutan lebat dengan kolam renang alami.	ChIJR1f4xHh60i0Rl0PrKWj6JFo	-8.7706991	115.4969556
https://lh5.googleusercontent.com/p/AF1QipMV5uxNgdAOZKYlRVBXyh7Sf29HGUYeitRvMYet=w408-h544-k-no	Karang Boma Cliff	4.6	1602	Bali	Kabupaten Badung		Pantai	Mendaki ke tempat pengamatan puncak tebing berhutan yang populer untuk melihat matahari terbenam di Laut Bali.	ChIJCe8G_AtQ0i0R0JR4F-xW47U	-8.8345366	115.0877251
	Pura Agung Pulaki	4.7	1578	Bali	Kabupaten Buleleng		Wisata Sejarah & Budaya	Pura Hindu dari akhir abad ke-16, dengan halaman indah, monyet penghuni & pemandangan Laut Jawa.	ChIJ19QDg-Fu0S0RiKNCbo8mFCQ	-8.1456367	114.6803377
	Pura Melanting	4.8	1566	Bali	Kabupaten Buleleng		Wisata Sejarah & Budaya		ChIJ089wokZu0S0RgElgasNsJjo	-8.1602442	114.6807802
https://lh5.googleusercontent.com/p/AF1QipO1J-DhnoQkKAMimB4ouJ8ywhvpY8WtRmfjwbtW=w426-h240-k-no	Bali Butterfly Park Tabanan	4.4	1563	Bali	Kabupaten Tabanan	+62 878-6307-5006	Taman	Lokasi yang cocok untuk keluarga dengan tur edukasi yang memiliki beragam spesies kupu-kupu & serangga.	ChIJMaOrTtM60i0RRirULm_EL5s	-8.4795048	115.1348148
https://lh5.googleusercontent.com/p/AF1QipOP03hQw_fyohAq-vO81aViqt8cjzJU_vDro-oL=w408-h272-k-no	Tulamben US Liberty Wreck Ship	4.7	1410	Bali	Kabupaten Karangasem		Pantai	Kapal kargo AS yang tenggelam, ditorpedo pada 1942, menjadi lokasi selam dengan karang berwarna & ikan tropis.	ChIJOQ35CRb_0S0RaMbvIj1pQnw	-8.2742022	115.5930373
https://lh5.googleusercontent.com/p/AF1QipOXvAx3OajD2lXtNr10k7HGOWFOtfMVssw-RQjU=w408-h525-k-no	Gamat Bay	4.6	1334	Bali	Kabupaten Klungkung		Snorkling area	Teluk terlindungi dengan pantai berlatar pohon kelapa, populer untuk tur menyelam & snorkeling.	ChIJjyjroGMX0i0RVcmFU8xvl90	-8.7011172	115.4692487
https://lh5.googleusercontent.com/p/AF1QipPbRSO4ygA-67VrF9vvrtBO0BHJShf5-HC57x0l=w408-h272-k-no	Rumah Pohon "Tree House"	4	1327	Bali	Kabupaten Klungkung		Wisata Alam		ChIJLXtm84F30i0RqP1JA2IQyTY	-8.7785108	115.6168404
https://lh5.googleusercontent.com/p/AF1QipOdsL-U81EudNmIDPz-9YyXZRMnj7iZie2G2o-f=w408-h314-k-no	Taman Pecangakan - Negara	4.5	1316	Bali	Kabupaten Jembrana	+62 859-2578-9656	Taman		ChIJnbIRfg5i0S0RPWWAoRtSroo	-8.3581195	114.6367885
https://lh5.googleusercontent.com/p/AF1QipPRQ5OdwRfHcIWvnymrtV43n-tPWwJcDIK751nN=w408-h484-k-no	Gembleng Waterfall	4.7	1233	Bali	Kabupaten Karangasem	+62 878-6625-2512	Wisata Alam		ChIJf30I3WER0i0RIXTOmfe8O-E	-8.4926826	115.460857
https://lh5.googleusercontent.com/p/AF1QipPcVZP4Uc-FRKzcTvuesHmTLZomITYdA9WE7Ctv=w408-h306-k-no	Air Panas Angseri	4.3	1225	Bali	Tabanan Regency	+62 857-3814-1745	Tourist attraction	Local hot springs with public & private pools amid lush scenery.	ChIJ_____8OJ0S0RzYLkKOcHW_M	-8.3539946	115.1593677
https://lh5.googleusercontent.com/p/AF1QipMViCcc48bgVYdJiJxioKeqEQnQ-DVc7QB8q4-W=w408-h306-k-no	Museum Seni Agung Rai	4.5	1212	Bali	Kabupaten Gianyar	+62 361 976659	Wisata Sejarah & Budaya	Museum seni yang menampilkan karya tradisional & kontemporer seniman Bali, Indonesia & lainnya.	ChIJw9lGTXQ90i0RONY615P93hc	-8.5228143	115.2637566
https://lh5.googleusercontent.com/p/AF1QipMYP4T-OnlFjyUBHWqfJQPnpPrqX-TYwFt8t3fG=w408-h306-k-no	Lembongan Trip, Manta Ray Snorkeling, Penida day tour	4.9	1163	Bali	Kabupaten Klungkung	+62 812-3660-3218	Penyelenggara Perjalanan		ChIJI_JzRaJt0i0RxDGUU_Go8cM	-8.6802839	115.4476454
https://lh5.googleusercontent.com/p/AF1QipMCijAUC5rVu6WJBfzKL2EnOr6QKnZ2fLW38Uma=w408-h272-k-no	Manta Point Nusa Penida	4.5	1127	Bali	Kota Denpasar		Snorkling area	Lokasi indah dengan pantai, panorama puncak tebing & perairan jernih untuk snorkeling & melihat pari manta.	ChIJ9WUPNnl60i0RBlpodzIAH2A	-8.7939035	115.527015
https://lh5.googleusercontent.com/p/AF1QipMp_NKBjzohhgA9If6w52GwHrxRT1piSNwFk4M8=w408-h306-k-no	Banyu Wana Amertha Waterfall	4.8	1113	Bali	Kabupaten Buleleng	+62 822-4616-9096	Wisata Alam	Air terjun tenang dengan kolam yang dikelilingi tumbuhan subur dan air terjun kecil lainnya di dekatnya.	ChIJL6Q2CwqP0S0RRcaWKuRqTPY	-8.212829	115.1222271
https://lh5.googleusercontent.com/p/AF1QipO-xnaAPkvKdGFxcPpiOR1rB9WIBsYEeT2oEK38=w408-h305-k-no	Pantai Keramas	4.5	1111	Bali	Kabupaten Gianyar		Pantai	Peselancar sering mengunjungi pesisir pantai dengan pasir hitam, ombak luas & pemandangan indah ini.	ChIJH3OlllUU0i0R7gr3r_FVZkY	-8.5977459	115.3390381
https://lh5.googleusercontent.com/p/AF1QipNzRw0WBsjLi9KNVDmVW_n6xRkrUTq-kkPnF4eL=w408-h305-k-no	Teletubbies Hill	4.1	1053	Bali	Kabupaten Klungkung		Hiking Area	Dinamai dari latar belakang pertunjukan eponim, perbukitan ini berubah menjadi hijau cerah selama musim hujan.	ChIJYfEnJEV30i0RS9pcaNa604M	-8.7853848	115.5747842
https://lh5.googleusercontent.com/p/AF1QipPgzr4WSN_tK__-tZX8mV0NjeXYFHL_BiPMHEGa=w408-h306-k-no	Rumah Topeng dan Wayang Setia Darma	4.8	1022	Bali	Kabupaten Gianyar	+62 361 977404	Wisata Sejarah & Budaya	Museum kuno dengan berbagai topeng & boneka dari seluruh dunia & pertunjukan yang sering diadakan.	ChIJDbbjIIY90i0Rf-Qzhcm9ggw	-8.5340219	115.2797902
https://lh5.googleusercontent.com/p/AF1QipM8MM0VL_fuk1spLR7VL_yh7NO6cGf479biiuUQ=w408-h272-k-no	Vihara Dharma Giri	4.7	970	Bali	Tabanan Regency	+62 362 71029	Tourist attraction		ChIJi4FhTj-H0S0RwZgBnD4LXO8	-8.3195409	115.0176275
https://lh5.googleusercontent.com/p/AF1QipNee_4Dk2cJodWaPo4y5uYLQoh_43xLK0QPUQqo=w426-h240-k-no	Japanese Ship Wreck Point	4.3	945	Bali	Kabupaten Karangasem	+62 857-3701-0778	Pantai		ChIJc4tY0iT_zS0ReyL8DLy6ddw	-8.3646513	115.7006586
https://lh5.googleusercontent.com/p/AF1QipOcgZ_2VDR_u7Iy8BdA061omd3qe1fjetCPZFPF=w408-h544-k-no	Bali Chocolate Factory	3.8	914	Bali	Kabupaten Karangasem	+62 878-6009-5999	Tujuan Wisata		ChIJeXrQS14I0i0RrENd0wRVjug	-8.4830133	115.6173424
https://lh5.googleusercontent.com/p/AF1QipOXMLybY-z8I8O4GjhJOOFOGnrGg0o-9cxUkGMN=w408-h306-k-no	Mangrove Point	4.3	912	Bali	Kabupaten Klungkung	+62 813-5339-2851	Wisata Alam	Destinasi dengan hutan bakau dan perairan, terbuka untuk tur kayak yang indah, serta snorkeling.	ChIJufCSjHtt0i0RUDZ6RUZpJ9c	-8.6662999	115.4669795
https://dynamic-media-cdn.tripadvisor.com/media/photo-o/17/d8/d2/d3/landscape.jpg?w=2100&h=1400&s=1	Fairfield by Marriott Bali South Kuta	4.3	884	Bali	Badung Regency	+62 361 4753111	Hotel	Stylish rooms, some with balconies, in a chic hotel offering dining, plus a rooftop pool & bar.	ChIJMSmtDB9E0i0Rlnb7AdrJSkI	-8.737312	115.166685
https://lh5.googleusercontent.com/p/AF1QipNnXQaYwzH1epPldQERThWxigpE-J41tDfsWUbN=w427-h240-k-no	Kemenuh Butterfly Park, Bali	4.4	875	Bali	Kabupaten Gianyar	+62 878-5549-3397	Kebun Binatang		ChIJ8yjEyTUX0i0RvzawGaLG6eU	-8.572696	115.2866632
https://lh5.googleusercontent.com/p/AF1QipO6a_n16S5KMJSXBpJhHE3B8olBHqZms8BI7p4=w408-h611-k-no	Kajeng Rice Field	4.6	841	Bali	Kabupaten Gianyar		Wisata Alam	Jalur yang membawa pejalan kaki melalui sawah & desa Kajeng, bergabung dengan jalur lain untuk jalan memutar.	ChIJ8ajmy0A90i0RyTmTz7x6GEE	-8.5006232	115.2618325
https://lh5.googleusercontent.com/p/AF1QipNffbMvbYcdaLgYGJtbQng93m2kM0V-gWiRbSCW=w408-h541-k-no	Ricefields Tegallalang	4.4	800	Bali	Kabupaten Gianyar	+62 821-4567-8979	Wisata Alam		ChIJhedtJHQi0i0Rf8oKqrMLhis	-8.4326349	115.2787491
https://lh5.googleusercontent.com/p/AF1QipPBx8ODUIDC8h_stnkzPreeFpGhaOIZIoL6DpKg=w408-h306-k-no	Goa Rang Reng Waterfall	4.7	796	Bali	Kabupaten Gianyar		Wisata Alam		ChIJv_tYCBIX0i0Rn_MGS2i_Kpc	-8.5155934	115.3313441
https://lh5.googleusercontent.com/p/AF1QipMkyPsgctcwN5a1HgLrjSUfDmTy44i1xURNjs6Y=w408-h544-k-no	Ubud Water Palace	3.8	733	Bali	Kabupaten Gianyar	+62 361 975660	Taman	Bekas istana yang dibangun dari batu merah & putih, dengan pertunjukan tari di taman air.	ChIJeWk_HUE90i0RLtgaWympMSw	-8.5063413	115.2613023
https://lh5.googleusercontent.com/p/AF1QipOGZR7Y7YYDPHxDXY7VsT9yXYsY_Qi-84SWud91=w408-h252-k-no	Puncak Indah Bedugul	4.6	712	Bali	Kabupaten Tabanan	+62 887-0309-7941	Wisata Alam		ChIJ-5G51WyJ0S0R3SGp5T1BdlA	-8.2782353	115.1653485
https://lh5.googleusercontent.com/p/AF1QipPsVZfX0xfkSYSyg0kHURf7eSHhLGJ_tL-ENcC4=w427-h240-k-no	Hidden Garden Agriculture	4.3	682	Bali	Tabanan Regency	+62 821-4653-9557	Taman		ChIJVbhtMjUn0i0RUj3B9w6iPYA	-8.3507449	115.1888769
https://lh5.googleusercontent.com/p/AF1QipN4V5Q17XohEX1vIN08-sdJ6LU3trO-vAWC1wWq=w408-h306-k-no	Pura Beji Sangsit (Cagar Budaya & Pura Umum)	4.6	651	Bali	Kabupaten Buleleng	+62 815-5800-7230	Wisata Sejarah & Budaya	Pura abad ke-15 dengan pahatan batu memukau berbentuk ular & figur mistis.	ChIJVcCd5i6X0S0RpNzLzQioxX0	-8.0837526	115.1342524
https://lh5.googleusercontent.com/p/AF1QipPUWfJFdo6QydApQEZZ2lePbm_NZowCjhW-_j7d=w408-h306-k-no	Museum Le Mayeur	4.1	628	Bali	Kota Denpasar	+62 361 286201	Wisata Sejarah & Budaya	Museum yang intim berisi karya seni Adrien-Jean Le Mayeur, serta koleksi artefak khas Bali miliknya.	ChIJq-2TrzlA0i0RwvUDjrMII7w	-8.6748773	115.2636777
https://lh5.googleusercontent.com/p/AF1QipNJO1fCUyS8TiLwZEPyBegXJQLzgiR3iXAl1X8q=w408-h725-k-no	Air Terjun Yeh Hoo	4.6	621	Bali	Tabanan Regency	+62 858-5705-4531	Wisata Alam		ChIJiSGUo6Yn0i0RYkhFft-SUv8	-8.3586762	115.1360395
https://lh5.googleusercontent.com/p/AF1QipODEdO3gG458hDHO9vjSIXulBeM2CRIYP_VFoVT=w408-h306-k-no	Tamblingan Lake	4.5	605	Bali	Buleleng Regency		Tourist attraction		ChIJy1ZD1QKG0S0R1haO1s-Oago	-8.2647017	115.091894
https://lh5.googleusercontent.com/p/AF1QipNxYkLFQ16-1rNd0d2OT9kXsqbTHVyQslWdHvP2=w572-h240-k-no	Museum Pasifika Bali	4.5	588	Bali	Kabupaten Badung	+62 361 774935	Wisata Sejarah & Budaya	Museum ramah-anak ini memiliki 11 paviliun yang disediakan untuk berbagai genre karya seni Asia Pasifik.	ChIJRbNf4b5B0i0R5xfnGuTcxjY	-8.8001117	115.2307077
https://lh5.googleusercontent.com/p/AF1QipO5CINiylBUKxtTvS_4jP8MiPAUm3Y6STTofEa9=w408-h306-k-no	Hotel Pondok Indah Bedugul	4.4	576	Bali	Tabanan Regency		Hotel		ChIJa2Dbx5qJ0S0RJWE7Fk2KlVs	-8.2980945	115.1771345
https://lh5.googleusercontent.com/p/AF1QipPjG8dMl51Mg82zYcCHqSwuwJfX0_73FbIxbUT1=w408-h356-k-no	Pandora Experience Escape Room Bali	4.7	556	Bali	Kabupaten Badung	+62 878-6225-1822	Shopping Area		ChIJe1Kyes9G0i0RqO6GK4YK2-A	-8.7065454	115.1780584
https://lh5.googleusercontent.com/p/AF1QipMSyas4ueLtBED3pXXDC0blzEYEFZYHD-Zvc4d9=w408-h306-k-no	Honeymoon Beach	4.4	542	Bali	Kabupaten Badung		Pantai		ChIJ5_TINIRF0i0Rz6DwJGLEQKw	-8.7797921	115.1439473
https://lh5.googleusercontent.com/p/AF1QipMYxL3yFxtTQRawcq_sx-DAo20xcTg3Kg-2RzsJ=w408-h306-k-no	Sampalan Beach	4.5	520	Bali	Kabupaten Klungkung		Pantai		ChIJf6vohYRz0i0RWR13tN80tzY	-8.6719272	115.5597316
https://lh5.googleusercontent.com/p/AF1QipNCwNGLyKKtaXzSnRbMhy0oHncMa5UrXpe4Zyv-=w426-h240-k-no	Tebing Pantai Balangan	4.8	505	Bali	Kabupaten Badung	+62 361 9009270	Tujuan Wisata		ChIJl3cclhFF0i0RbSh25ZoqDQA	-8.7896794	115.1251549
https://lh5.googleusercontent.com/p/AF1QipPw5dAriPQxDwOiuf4SVxKiamWMh7h4Z6VJLZzc=w408-h408-k-no	Lonce amed snorkeling tour	4.5	489	Bali	Kabupaten Karangasem	+62 813-3942-5522	Snorkling area		ChIJFedaLc7_zS0RsYpeG9gRXpM	-8.3509455	115.6843615
https://lh5.googleusercontent.com/p/AF1QipO2nosBUeJEFvnhF6i36v5UhWutdtj6DS36kqZf=w408-h545-k-no	St Yoseph Karmel, Bedugul - Bali	4.7	487	Bali	Tabanan Regency	+62 368 21407	Retreat center		ChIJ5wSTk4-J0S0RZ5TgoG8ZXN0	-8.2997333	115.1791533
https://lh5.googleusercontent.com/p/AF1QipPQ9Fp9V-BsasNTo2vcCh3MxUhxISxkSFKcjQcb=w408-h272-k-no	Virgin Beach	4.7	483	Bali	Kabupaten Karangasem		Pantai		ChIJQRIPKcEH0i0R7_3qVPIt_CE	-8.5014485	115.6105419
https://lh5.googleusercontent.com/p/AF1QipNWvQ_m3bivcZM6UlPCuJV5EQpPz7veXXDUusJR=w408-h544-k-no	Air Terjun Melanting	4.7	464	Bali	Kabupaten Buleleng		Wisata Alam	Air terjun tinggi di hutan lebat, jatuh dari batu terjal ke dalam kolam dengan dek observasi.	ChIJn8yk7HaG0S0RHG3kKWkmyEc	-8.2608842	115.0627329
https://lh5.googleusercontent.com/p/AF1QipPH4bzpLHOIt3fIzHZjW6QKdb4fT0U7OyiRtNTO=w408-h544-k-no	Wisata Gelar River	4.5	452	Bali	Kabupaten Jembrana	+62 365 41010	Wisata Alam		ChIJn8tm-5lj0S0Rpsz1wSxdGOA	-8.2993803	114.6553135
https://lh5.googleusercontent.com/p/AF1QipMj6CbVRCk_2WjoXZ7IryqGgKNb52KdbeGB3yX9=w408-h544-k-no	Seganing Waterfall	4	451	Bali	Kabupaten Klungkung	+62 822-3617-6345	Tujuan Wisata	Air terjun tepi pantai & kolam alami indah, dijangkau melalui jalur setapak tepi tebing yang sempit & sulit.	ChIJyRJbPTBw0i0RWHRzP86eIv4	-8.760954	115.4868511
https://lh5.googleusercontent.com/p/AF1QipOM7-xF4FkynMUPUAffdneeJnA37EKXGyqHTTrL=w408-h294-k-no	5GX Bali	4.7	431	Bali	Kabupaten Badung	+62 819-9973-3399	Taman Hiburan		ChIJ42S2wsZG0i0R7FPGj3F-v4c	-8.7178511	115.174477
https://lh5.googleusercontent.com/p/AF1QipNVkBfLxsSesEsj3yTXPkuBUG_yBlBsixjXacZX=w408-h306-k-no	Agro Puncak Bedugul	4.3	402	Bali	Tabanan Regency	+62 813-3722-7241	Tourist attraction		ChIJs5sqyqmJ0S0RP4_ko4Y5Mao	-8.2927694	115.1501572
https://lh5.googleusercontent.com/p/AF1QipM-df7U_89gX2HiMM44xufVyjeDH61VGrjtuZM7=w426-h240-k-no	Banah Cliff Point	4.5	381	Bali	Kabupaten Klungkung		Wisata Alam	Panorama bukit terjal berhutan & lengkungan batu laut dari tebing curam yang diakses melalui jalur sulit.	ChIJi2aSnjxw0i0RKCBNk92j_es	-8.7670731	115.4869036
https://lh5.googleusercontent.com/p/AF1QipPh3Xr0PQ1w-1m77OcN9g1WiaZ8FpMAPX4QCEe5=w426-h240-k-no	Lovina Dolphin Watching	4.7	381	Bali	Kabupaten Buleleng	+62 877-6271-8933	Pantai		ChIJH6Vhr8-b0S0RjulWoeAgfx4	-8.1639235	115.0215886
https://www.iceportal.com/data/2813-144219-f73430216_XXLejpg/Indonesia/BALI/Banyan-Tree-Escape-Buahan/Photo/Banyan-Tree-Escape-Buahan-BALI-Undefined-Welcome-Area.jpg	Buahan, a Banyan Tree Escape	4.9	329	Bali	Gianyar Regency	+62 361 6208181	Hotel	Rustic-chic villas with private pools in a high-end jungle resort featuring a spa & a restaurant.	ChIJ08JGd_0h0i0RAT-4TS4ZTuA	-8.365373	115.2384718
https://lh5.googleusercontent.com/p/AF1QipMLSr2objQjOo2h7JzR97uBddMbpDIG1hu9-ouX=w408-h306-k-no	Desa Kokokan	4.3	325	Bali	Kabupaten Gianyar		Wisata Sejarah & Budaya		ChIJJ0mkpK4i0i0R0Td4qRzQmZM	-8.4784385	115.2765648
https://lh5.googleusercontent.com/p/AF1QipNKtc0IXd9CG5aPMvp4qzbnlYOJFrP_GEjiqOgx=w411-h240-k-no	Pura Puncak Mundi	4.7	306	Bali	Kabupaten Klungkung		Wisata Sejarah & Budaya		ChIJIQIpqQtx0i0RIkqmw5PJkBQ	-8.7321375	115.5242335
https://lh5.googleusercontent.com/p/AF1QipMGEArlUFpM_Pp7YU78Iil19dEEmOK3wOgRn4fy=w427-h240-k-no	Bukit CINTA PANGI	4.4	305	Bali	Kabupaten Karangasem		Wisata Alam		ChIJkbzm_lMG0i0RoMeNg0BjlX8	-8.4262591	115.6088009
https://lh5.googleusercontent.com/p/AF1QipM5T-4tugIsUa-7OezAEy_G2cc7df6MHqW8Q3mv=w408-h306-k-no	U Fun Field	4.6	300	Bali	Kabupaten Gianyar	+62 812-3756-1677	Wisata Alam		ChIJDy7NVvUj0i0Rgx6p8ZKSs-s	-8.4324703	115.2728388
https://lh5.googleusercontent.com/p/AF1QipOaoauOT5RwSHG0EtSBqiV9krZQwQSOn0sbecmf=w408-h306-k-no	Bugbug Village	4.7	300	Bali	Kabupaten Karangasem	+62 878-6522-5657	Tujuan Wisata		ChIJwb_wn3gJ0i0RiuYAy3M6EaI	-8.4888072	115.5941963
https://lh5.googleusercontent.com/p/AF1QipMC1kXbYOyAdmoQkpOhsu5RJeDlvvuRtesTLRFb=w426-h240-k-no	Bali Sea Turtle Society	4.4	278	Bali	Kabupaten Badung	+62 811-3882-683	Organisasi	Kantor pusat kelompok pencinta lingkungan pulau di tepi pantai yang melindungi telur penyu di musim bersarang.	ChIJh8Ivx7xG0i0Rq4qV4VKa6-k	-8.7232678	115.1698051
https://lh5.googleusercontent.com/p/AF1QipOBuwJ57pU6suGUq6RTaQQ1L7hCBFLsA3f8JbVz=w408-h306-k-no	Turtle Hatchery Project	4.6	278	Bali	Kabupaten Buleleng	+62 812-3894-051	Tujuan Wisata		ChIJ_zCxk_Ju0S0R9QlfkZZ_Bak	-8.1439385	114.6557551
https://lh5.googleusercontent.com/p/AF1QipPb8Luvr8Grh3EA6_6MGSbjbCOscv_0fiCmdMtz=w408-h306-k-no	THE MANTA POINT	4.7	255	Bali	Kabupaten Klungkung		Tujuan Wisata		ChIJbyzgRnV70i0RCi7IEe5kses	-8.8019211	115.5517607
https://lh5.googleusercontent.com/p/AF1QipNrB4R8EojnzEi9b4f6ICF7EeyT-S2_GTpmDNIl=w408-h272-k-no	Bukit Putung	4.4	235	Bali	Kabupaten Karangasem		Wisata Alam		ChIJ14B1OXkF0i0RWD1b6N4UCAg	-8.454822	115.5162067
https://lh5.googleusercontent.com/p/AF1QipPqnBgKi1pbjPQyO5AXwq_9fDc9qjF7SjnXstuz=w408-h306-k-no	Bali Countryside Sidemen	4.4	228	Bali	Kabupaten Karangasem	+62 857-6888-8020	Wisata Alam		ChIJaedTdPgQ0i0RmPj2rgggOmw	-8.505544	115.425761
https://lh5.googleusercontent.com/p/AF1QipN1EQsw4AGOjbZWCkBT4_7NeexI3Y2XlSSxM1fb=w408-h306-k-no	Munduk Wilderness Outdoor Activities	4.6	220	Bali	Kabupaten Buleleng	+62 877-8100-6202	Wisata Alam		ChIJp7wfqDqG0S0R4ntEXjCCzss	-8.2857681	115.0815283
https://lh5.googleusercontent.com/p/AF1QipM9sD8Us6k7mA3a4Sjpw4hg8DTVSvRHi6fXbyrF=w426-h240-k-no	Air Terjun Munduk	4.5	218	Bali	Kabupaten Buleleng		Wisata Alam	Jalur pendakian pendek mencapai air terjun indah yang mengalir di tengah lingkungan yang rimbun.	ChIJPV6QbVaP0S0RGu87o5AYupA	-8.2607417	115.0685229
https://lh5.googleusercontent.com/p/AF1QipPNL4tEFZV04YR7ohJd0SkygIta_8ppGwMVRsml=w408-h383-k-no	Amed snorkeling center	5	213	Bali	Kabupaten Karangasem	+62 815-2924-1875	Snorkling area		ChIJK2LGYAX_zS0RnlEGlPZj910	-8.3582	115.6957549
https://lh5.googleusercontent.com/p/AF1QipPvGTrhmW1qalBTYDSqdxSGaRsUkGHH8zlAtkw8=w408-h816-k-no	Jembatan Kuning Tukad Yeh Unda	4.3	213	Bali	Kabupaten Karangasem	+62 859-5668-9522	Wisata Alam		ChIJGzd44pYa0i0RiWiwaGvmad4	-8.4598924	115.4457336
https://lh5.googleusercontent.com/p/AF1QipM2mkcGY5I49893W24VXUPcI89ZAhDwQoId7WVP=w426-h240-k-no	Biorock Pemuteran	4.6	212	Bali	Kabupaten Buleleng	+62 852-3808-2285	Snorkling area		ChIJ5VA6rPJu0S0RwahEKsFHIMM	-8.1426059	114.6543885
https://lh5.googleusercontent.com/p/AF1QipMTOufxJzwUljlxibWSYG7hMw3b679x5PtA0NGk=w408-h306-k-no	Jimbaran Beach	4.4	210	Bali	Kabupaten Badung		Pantai		ChIJUbrsp2FF0i0Roebd3Se989c	-8.7724348	115.1683453
	Gili Putih Sumberkima	4.6	207	Bali	Kabupaten Buleleng		Tujuan Wisata		ChIJ2fmvVJdp0S0RcMeSosWckHw	-8.1199862	114.6049661
https://lh5.googleusercontent.com/p/AF1QipOh9c-dT9gXtYLWKLfDOFkBwIiYqrXATRivQtVp=w408-h307-k-no	Manta Bay	3.2	198	Bali	Kabupaten Klungkung		Snorkling area		ChIJLVeFMQBv0i0RTr5nlNna43I	-8.7349753	115.4488976
https://lh5.googleusercontent.com/p/AF1QipMpvlZ4kFu1S0aX83OJ_2VLvSO0RKBGnRi3BgR3=w408-h272-k-no	Puncak Mawar Jembrana Bali	4.1	194	Bali	Kabupaten Jembrana	+62 878-6307-7981	Hiking Area		ChIJO2S_Z_Jj0S0ReulEiW6QbFc	-8.2938045	114.639346
https://lh5.googleusercontent.com/p/AF1QipOpOkZq36qleUpf5704YCrjHwT6CTDLjKhdrVk0=w408-h544-k-no	Kawasan Pariwisata Nusa Dua	4.6	193	Bali	Kabupaten Badung	+62 361 771010	Tujuan Wisata	Area turis yang terkenal karena resor & pantai, dengan objek wisata seperti pura, museum & golf.	ChIJ4_8LOiZD0i0Rs6MSGkwcuv0	-8.8034419	115.2282787
https://lh5.googleusercontent.com/p/AF1QipNiJkgtoiTMl_njlwILFtwD6JQcDwB4hKmJiix4=w408-h306-k-no	Saren Cliff Point	4.6	186	Bali	Kabupaten Klungkung	+62 853-3841-7232	Restoran		ChIJSZGd2mtw0i0RUm5xTZ4F_0g	-8.7744198	115.502352
https://lh5.googleusercontent.com/p/AF1QipMcaz6gnhy4Oy9DCqKLGeKXQgkLFZdd6LHLl-ME=w427-h240-k-no	Bali Camel Adventure	4.6	182	Bali	Kabupaten Badung		Pantai		ChIJhYR21_NF0i0RSWVoEZ9-bc8	-8.752645	115.1637081
https://lh5.googleusercontent.com/p/AF1QipPXWZ17TMvQUp7zqYfm6B1FVPvEyVhZ6qnfuhzv=w408-h306-k-no	Rice Fields Walk	4.8	174	Bali	Kabupaten Gianyar		Wisata Alam		ChIJi8jNFwY90i0RHk2xN6jZmik	-8.4949388	115.2475037
https://lh5.googleusercontent.com/p/AF1QipN4fZa8HZf95s-NEevu53QGpxGurgUkR5KeYLmE=w408-h306-k-no	Bali Twin Lake Trekking Point	4.4	170	Bali	Kabupaten Buleleng	+62 821-4432-7656	Wisata Alam		ChIJG27_1FaP0S0R4fbWOqo5kXo	-8.2473297	115.0991074
https://lh5.googleusercontent.com/p/AF1QipMgy65Pt2hn3IGYMj9ItN1SpZDS1rA5G53-Ra9c=w408-h544-k-no	Campuhan Antapan Waterfall	4.5	170	Bali	Tabanan Regency	+62 819-3306-3377	Wisata Alam		ChIJ8QSOLqch0i0RcTQSencM0v4	-8.3593389	115.1947135
https://lh5.googleusercontent.com/p/AF1QipO3Ju2tCAVX2Vv8qW_3162EZcZntw1epnrB480s=w408-h544-k-no	Puri Langon Ubud	4.9	170	Bali	Kabupaten Gianyar	+62 817-4111-983	Wisata Alam		ChIJ06f2e2U90i0RPUrfcGfSJoc	-8.4975982	115.2642325
https://lh5.googleusercontent.com/p/AF1QipO0_p2iM2Z5u_rgBeG4ljAk45lDj7tVBE3JfvUv=w408-h306-k-no	Rice Terrace Munduk	4.6	158	Bali	Kabupaten Buleleng		Tujuan Wisata		ChIJf_7Y62WG0S0R-PiSXIPMayo	-8.2713376	115.0572231
https://lh5.googleusercontent.com/p/AF1QipOKEf9-_SY38PSejPMDMgVSCuXTUFFMNiic_0bN=w408-h306-k-no	Candidasa Lotus Lagoon	4.2	158	Bali	Kabupaten Karangasem		Tujuan Wisata		ChIJ-cVQSSwJ0i0Ru3jc7bSV7TQ	-8.5111739	115.572218
https://lh5.googleusercontent.com/p/AF1QipOYg88vyeosY60dhkSOBFe4mzFyTILnjqS5z7Ub=w408-h306-k-no	Menjangan Snorkeling & Ijen üèîÔ∏è Pemuteran Activities	5	155	Bali	Singaraja	+62 878-6310-0587	Snorkling area		ChIJT7ciGzZv0S0Rq6v3Z6VgpOg	-8.1469296	114.6229364
https://lh5.googleusercontent.com/p/AF1QipN9m-G_i67e3oVMOJoT7bP7gvRQzfPYN1a0Veav=w408-h272-k-no	Bali Quad Discovery Tours	4.6	150	Bali	Kabupaten Gianyar	+62 361 720766	Tujuan Wisata		ChIJYU3J7KBB0i0RZcUJkiKMTBY	-8.3288891	115.2731454
https://lh5.googleusercontent.com/p/AF1QipONwxJecVfCCHD4Lw_ANo5FdJYsY7wtrI6KRdnI=w408-h306-k-no	Pantai Mesari	4.7	148	Bali	Kabupaten Badung	+62 361 9009270	Pantai	Payung warna-warni dari bar tepi pantai tersebar di pantai berpasir indah ini dengan panorama sunset.	ChIJrz7gBh5H0i0R0oOF7m3zaEA	-8.6940298	115.1594615
https://lh5.googleusercontent.com/p/AF1QipPjJtDBwURecfgtBdfiQKNly_WEuC8k5xy-dSmX=w408-h306-k-no	Pura Gumang ·¨ß·¨∏·¨≠‚Äã·¨ï·¨∏·¨´·¨Ç·≠ü‚Äã	4.8	135	Bali	Kabupaten Karangasem		Wisata Sejarah & Budaya		ChIJGWsmByEJ0i0RmTzw2ZaWhCo	-8.5057639	115.5887164
https://lh5.googleusercontent.com/p/AF1QipNo1ZlkLDrGmPSFzql9vOU-8jcO9_oFYiqJIb0=w408-h306-k-no	Pura Teratai Bang ·¨ß·¨∏·¨≠·¨¢·≠Ç·¨≠·¨¢·¨ø·¨©·¨Ç·≠ü	4.7	125	Bali	Kabupaten Tabanan		Wisata Sejarah & Budaya		ChIJ-84ZrxaJ0S0RvnkTcCoAi0o	-8.2761991	115.1484146
https://lh5.googleusercontent.com/p/AF1QipPtn9jIfhtzNWsL4mpLbl1wKn0T8LL5sWGrB3_L=w426-h240-k-no	Birding Tours in Bali ( Made Surya )	5	117	Bali	Kabupaten Jembrana	+62 813-3827-4579	Biro Wisata		ChIJuR4KImRd0S0RTToYumJOPWM	-8.2372542	114.5172579
https://lh5.googleusercontent.com/p/AF1QipO8BKfBbYB5ojfc_9OC6VxblC0kBba0yOWZLoBi=w408-h493-k-no	Munduk Taxi Driver by ciko	5	111	Bali	Buleleng Regency	+62 851-5756-2322	Tourist attraction		ChIJSwHzfwCH0S0RP-HcfIfC3F4	-8.2614642	115.0516438
https://lh5.googleusercontent.com/p/AF1QipOOCMKJrXN8KBLrUNTacq2OvTGKck0fKZnzVr-B=w408-h306-k-no	Bukit Guungan	4.4	108	Bali	Kabupaten Karangasem		Wisata Alam		ChIJB-L8AysJ0i0Rr-ajBLqcDS0	-8.5035769	115.5715461
https://lh5.googleusercontent.com/p/AF1QipPvemflUfddl6hPB3CgoIVBKxC9q9l7CdNgo2jt=w426-h240-k-no	Air Terjun Blemantung	4.5	107	Bali	Tabanan Regency		Tourist attraction		ChIJqeoHnm2H0S0Re7c7kU8NUtE	-8.3190698	115.0444531
https://lh5.googleusercontent.com/p/AF1QipNnytN03NJk_b6TnOJQwLmv5KG10TKQQQ_EQJmG=w408-h408-k-no	Kampoeng Palarejo Selfie Spot Jembrana	4.3	107	Bali	Kabupaten Jembrana	+62 812-3691-2725	Tujuan Wisata		ChIJU6mMKiFn0S0RMkv6hIHaijE	-8.2513986	114.5459595
https://lh5.googleusercontent.com/p/AF1QipOj6z0lEj3R0WqyovCdoHhgRG3xiwyJ01rGw4qK=w408-h544-k-no	Bali Bird Walks	4.6	102	Bali	Kabupaten Gianyar	+62 361 975009	Wisata Alam		ChIJ9TZLexU90i0REmY1Mz24D9w	-8.5081572	115.2477457
https://lh5.googleusercontent.com/p/AF1QipPXwXZ7tt_5BwLKnZPOW-yPUyiNnT9JLtbV7v6A=w408-h408-k-no	Buyan Lake	4.6	96	Bali	Kabupaten Buleleng	+62 362 21342	Wisata Alam		ChIJMdMHVzeP0S0R-J95yrNSkgU	-8.2429113	115.1230949
https://lh5.googleusercontent.com/p/AF1QipMjFsFB4Fu5CCwN_ZILgwbQJcZxSuXexM6C_TiF=w408-h306-k-no	Monumen Taman Mumbul	4	92	Bali	Kabupaten Badung	+62 813-3800-9501	Tujuan Wisata		ChIJmxB2eGND0i0RhpmxbY4bWUY	-8.7856993	115.194214
https://lh5.googleusercontent.com/p/AF1QipPC1Fg-oU6U9oP2HT6N5evzj0crCbpNb2api6mv=w426-h240-k-no	Bendungan Yeh Unda Hulu	4.4	87	Bali	Kabupaten Karangasem		Tujuan Wisata		ChIJz9usu78a0i0RvMLEiCjqvbM	-8.4539628	115.4515574
https://lh5.googleusercontent.com/p/AF1QipO3sZ5UBCmGUI-lwjhyK7xfWFNozqoLzRj-cZ1R=w408-h544-k-no	Snorkeling Menjangan	4.8	87	Bali	Kabupaten Buleleng	+62 812-3957-889	Snorkling area		ChIJB6F1oHFp0S0R80OPHpOdNCs	-8.1409695	114.580826
https://lh5.googleusercontent.com/p/AF1QipNO_kR_fhDusu93-xyHIm-x8ONR7e3QhpgAu6VI=w408-h306-k-no	Bali Family Hangout	4.4	81	Bali	Gianyar Regency	+62 878-6320-4953	Playground		ChIJ9-uVdBY90i0RpEW4buDhIVc	-8.5176249	115.2499777
https://lh5.googleusercontent.com/p/AF1QipO0Z3fDzcU9jiEspG6zgx0XbCk4ju2wja5XcmRm=w408-h544-k-no	munduk clove	4.9	80	Bali	Buleleng Regency	+62 818-0567-8672	Camping farm		ChIJfft1mW2H0S0RlY2k4JUYaAc	-8.2626285	115.0646523
https://lh5.googleusercontent.com/p/AF1QipMNXH2x4bIukCGoIQUGofF0EwXqWNcu1n3H4oP3=w408-h299-k-no	Rio Bali Tour	4.9	73	Bali	Kabupaten Badung	+62 813-3864-7725	Biro Wisata		ChIJD4IfONQi0i0R5kj87_pj9oY	-8.6828623	115.1644557
https://lh5.googleusercontent.com/p/AF1QipOxoFx6gyTPDzIU-xbdSuZ40twbRmwW2xJfvMkO=w408-h544-k-no	Plaza Wisnu	4.5	72	Bali	Kabupaten Badung		Tujuan Wisata		ChIJpTBIgQVF0i0R8X4CurmMNDw	-8.8098285	115.1683232
https://lh5.googleusercontent.com/p/AF1QipMhLi5jfd2_MWXRBi--urVUcxy3MhPsbwLafBw=w408-h306-k-no	Penestanan‚Äã stairs	4.7	72	Bali	Kabupaten Gianyar		Tujuan Wisata		ChIJryvzNTw90i0R-1U_cMfJ-QQ	-8.5032466	115.2526753
https://lh5.googleusercontent.com/p/AF1QipPeiI0xp14EiUWMXI4afo-plRgkL4bKyn7DK09u=w408-h544-k-no	Kelan Beach	4.7	67	Bali	Kabupaten Badung		Pantai		ChIJB15b_yxF0i0RZAO1aWAv_-g	-8.7551201	115.166502
https://lh5.googleusercontent.com/p/AF1QipOFZMjkBQk9dMkYIKwhlwHa3ntbSyPuLrdYAPLP=w408-h271-k-no	GREEN BIKES BALI JATILUWIH (e-bike tours)	4.4	65	Bali	Tabanan Regency	+62 811-3535-575	Tourist attraction		ChIJh--h_a4n0i0Rkx7BmEv8zq8	-8.3654983	115.1330865
https://lh5.googleusercontent.com/p/AF1QipMMLGt3jLWYbkgbA8KkPzeufZGtzimI6JZ2LcOk=w408-h272-k-no	Santhipala Spring Waterfall	4.2	64	Bali	Buleleng Regency		Tourist attraction		ChIJJ1ZgwemG0S0REZ7tG82pRo4	-8.2860612	115.0239973
https://lh5.googleusercontent.com/p/AF1QipPwIleevOVBxZTRInVUU4ZWgxsn3xqgAKDnw4-Q=w408-h306-k-no	Taxi Amed Authentic Bali & Scooter rental	4.8	63	Bali	Kabupaten Karangasem	+62 813-3806-5709	Rental		ChIJWQw-4mP_zS0RV_bvtpl8Knk	-8.3457196	115.6763436
https://cdn.worldota.net/t/1024x768/content/88/1a/881a88bd3e1e0e472d5ca9d504f7f8058e167723.JPEG	Kampung Coklat jembrana	4.5	46	Bali	Kabupaten Jembrana	+62 817-747-573	Tujuan Wisata		ChIJL-GMePBj0S0ReXCXtWeHgQI	-8.3324955	114.6797408
https://lh5.googleusercontent.com/p/AF1QipMtQblxbwXJ9jnrB2rrEZk8yFrpfoqsLKAhIwcn=w408-h306-k-no	Bunutan (Om-Bhum) Beach	4.6	34	Bali	Kabupaten Karangasem		Pantai		ChIJqRDCkHr_zS0RoaqQReviNk4	-8.3444613	115.6738096
https://lh5.googleusercontent.com/p/AF1QipPf95UI0B9LZlSKBmNJ5AoeeYPuAzLD-BoLlZKo=w426-h240-k-no	Mahavira Buddhist Temple	4.3	30	Bali	Tabanan Regency		Tourist attraction		ChIJC9jIjnSJ0S0Rx8UsYQ2z0Qo	-8.2858029	115.1677447
https://lh5.googleusercontent.com/p/AF1QipPgFyNHXChdm4SeLfjqM9OV6t53uF-PZnGNn4Mo=w408-h271-k-no	Friends of the National Parks Foundation	4.9	26	Bali	Kabupaten Klungkung		Organisasi Nonprofit		ChIJFWdbmExy0i0RSKPLpmvHpr8	-8.68388	115.518827
https://lh5.googleusercontent.com/p/AF1QipPQCyv2OZ2qMUL6bJFYnHBTxrKLizveS2CFgIQk=w426-h240-k-no	Baruna Statue, God of Sea	4.2	23	Bali	Kabupaten Badung		Wisata Sejarah & Budaya		ChIJuw6kI3pF0i0RQvPp8HTTDDw	-8.7375094	115.1604694
https://lh5.googleusercontent.com/p/AF1QipP5daC5hra0iG8OrkvBP-peJA4xOFEayG_N_zX5=w426-h240-k-no	Segara Beach	4.6	21	Bali	Kabupaten Badung		Pantai		ChIJ3SPSie9H0i0RLtyz6PWLRY8	-8.7243214	115.1692808
https://lh5.googleusercontent.com/p/AF1QipPSZqgDkLlxMRDACdcwv7APFwAJ4TbCXWCbcCE=w408-h306-k-no	Green Tunnel - Ubud Main Street	4.3	15	Bali	Kabupaten Gianyar		Wisata Sejarah & Budaya		ChIJ059xziM90i0R16VMxIneYF8	-8.5048163	115.2565458
https://lh5.googleusercontent.com/p/AF1QipPsdR-N6yNHNIe5d3awNQi4a8aA_JhfcCELRSWj=w408-h544-k-no	Cheapest Activities Bali	5	14	Bali	Denpasar	+62 817-552-511	Tujuan Wisata		ChIJqbLYF9VH0i0RQEorVPoobqo	-8.6768632	115.1691377
https://lh5.googleusercontent.com/p/AF1QipO65Nt2d4jdPXr09YEeBb29u--AOgBsYRU1ws8q=w408-h544-k-no	Kimanis Sunset Point	4.4	11	Bali	Kabupaten Klungkung		Pantai		ChIJDfpGcrNx0i0RsSoYPVJzR_Y	-8.7575351	115.5383628
https://lh5.googleusercontent.com/p/AF1QipPHlVvyPxoWG6gxQU4LHHONh21yNPfptDVRMB_O=w408-h544-k-no	Sideman Ricefield Viewpoint	4.8	10	Bali	Kabupaten Karangasem		Tujuan Wisata		ChIJm5m6CMAR0i0RUSOi3FTT6q4	-8.488404	115.4406724
https://lh5.googleusercontent.com/p/AF1QipOLAabQOn80f1OD6T-jtzhR9bNnfWwLy5bruUSC=w408-h544-k-no	Village Munduk	3.8	8	Bali	Kabupaten Buleleng		Tujuan Wisata		ChIJ4VEwvfWH0S0RATEMK7SdIe0	-8.2666267	115.054678
https://lh5.googleusercontent.com/p/AF1QipOZIvZD-j_180jukPb1KbxKtwpUWmEv8wMN8Kxf=w425-h240-k-no	Gapura Nusa Dua	3.8	6	Bali	Kabupaten Badung		Tujuan Wisata		ChIJST8bRTJD0i0RZj73o3jGhf4	-8.7978295	115.225117
https://lh5.googleusercontent.com/p/AF1QipO8rN5HAQe2YyqHmBsTSzetmw37xPxD-yJ5P8DT=w480-h240-k-no	Bali Best Activities	4.2	6	Bali	Kabupaten Badung	+62 831-3158-2017	Biro Wisata		ChIJhwzmRsJE0i0RUDseg0X4WiE	-8.79756	115.157581
	Sumberkima Beach	4.3	6	Bali	Kabupaten Buleleng		Pantai		ChIJ66mdTMdp0S0R55eHqJkgiUY	-8.1248058	114.6187415
https://lh5.googleusercontent.com/p/AF1QipMow8HZrALkEF6cM4TsBq3zBu9dDsN9asmdtGvM=w408-h544-k-no	Aquamarine Beach	5	5	Bali	Kabupaten Karangasem		Pantai		ChIJw4798h__zS0RiY9uhJX9i7s	-8.361303	115.6989865
https://lh5.googleusercontent.com/p/AF1QipMeqQY2Mhe3g-jdj6N9472wEkGTmaojXJBuKuPN=w408-h306-k-no	Rice fields waterfall	5	5	Bali	Tabanan Regency		Tourist attraction		ChIJdWO1QvQn0i0RFscAyZBH674	-8.3702463	115.13104
https://lh5.googleusercontent.com/p/AF1QipOZiTU2oCSpCElOYbOFI2TPgrcyhariAFD6hDp5=w408-h544-k-no	Beautiful big tree	5	3	Bali	Kabupaten Tabanan		Beautiful big tree		ChIJaZAEoREn0i0RSpVSLNVbsP0	-8.4067121	115.1867761
https://lh5.googleusercontent.com/p/AF1QipMS2PZ920Ob_7Uw7NQj6WDAiVSuRUbqUeFmvJpR=w408-h509-k-no	Nusa Penida Manta Poin	3	2	Bali	Kabupaten Klungkung	+62 877-6156-9384	Wisata Alam		ChIJC12rkIlH0i0REgC_uG9ZI0U	-8.6824449	115.488461
https://lh5.googleusercontent.com/p/AF1QipM-uD7lkTZDuw3-Qd698zR_DNupGvS1C7_cFTLr=w408-h542-k-no	Molenteng	5	2	Bali	Kabupaten Klungkung		Tujuan Wisata		ChIJvQyPUBV30i0RBDgbGoqgs6w	-8.7761184	115.6149112
https://lh5.googleusercontent.com/p/AF1QipMlcBM-HPat0bNOh8BzsGov7AaZ6FrUn1y7sgK6=w408-h544-k-no	Sidemen trekking and tour east bali	5	2	Bali	Kabupaten Karangasem	+62 895-4107-86373	Tujuan Wisata		ChIJY7qxb34R0i0RTQwo7TUk5vw	-8.4575559	115.4414599
https://streetviewpixels-pa.googleapis.com/v1/thumbnail?panoid=sjC0n8cUHSl1I2VAt-K7fg&cb_client=search.gws-prod.gps&w=408&h=240&yaw=151.87163&pitch=0&thumbfov=100	Sidemen Trekking Adventures		0	Bali	Kabupaten Karangasem		Tujuan Wisata		ChIJIwQqEwAb0i0R_uyT_roFj0M	-8.4660771	115.4470959
https://lh5.googleusercontent.com/p/AF1QipPBGNNsO_It4jQZ7ZokWOR5YtJx5VdN6higdszn=w408-h303-k-no	Munduk		0	Bali	Buleleng Regency		Wisata Alam		ChIJX6h3ABGG0S0RgAaDyvsLAwU	-8.2666267	115.054678
https://streetviewpixels-pa.googleapis.com/v1/thumbnail?panoid=kQrMkdkLMh9oznodqHpoOA&cb_client=search.gws-prod.gps&w=408&h=240&yaw=211.6721&pitch=0&thumbfov=100	munduk guide		0	Bali	Buleleng Regency	+62 858-5897-9781	Hiking area		ChIJA3Mw6GmH0S0RoyDg69NBEls	-8.2666267	115.054678
https://lh5.googleusercontent.com/p/AF1QipNxF62TywhrVbsvSXAzh8HoUReNQRXHxoKGftbb=w408-h305-k-no	Jatiluwih		0	Bali	Tabanan Regency		Wisata Alam		ChIJKcxF374n0i0RgBqDyvsLAwU	-8.3492215	115.1118354